[{"OBJECT_NAME":"STARLINK-31522","OBJECT_ID":"2024-046D","EPOCH":"2026-03-09T22:27:49.230144","MEAN_MOTION":15.30193631,"ECCENTRICITY":0.0001022,"INCLINATION":53.1609,"RA_OF_ASC_NODE":154.4541,"ARG_OF_PERICENTER":67.2061,"MEAN_ANOMALY":292.9048,"EPHEMERIS_TYPE":0,"CLASSIFICATION_TYPE":"U","NORAD_CAT_ID":59204,"ELEMENT_SET_NO":999,"REV_AT_EPOCH":11308,"BSTAR":6.643743e-6,"MEAN_MOTION_DOT":-1.62e-6,"MEAN_MOTION_DDOT":0},{"OBJECT_NAME":"TEVEL2-6","OBJECT_ID":"2025-052F","EPOCH":"2026-03-09T15:35:24.554400","MEAN_MOTION":15.30760889,"ECCENTRICITY":0.0004769,"INCLINATION":97.4016,"RA_OF_ASC_NODE":325.0381,"ARG_OF_PERICENTER":95.6604,"MEAN_ANOMALY":264.5181,"EPHEMERIS_TYPE":0,"CLASSIFICATION_TYPE":"U","NORAD_CAT_ID":63215,"ELEMENT_SET_NO":999,"REV_AT_EPOCH":5486,"BSTAR":0.00070909,"MEAN_MOTION_DOT":0.00021046,"MEAN_MOTION_DDOT":0}]
